[{"OBJECT_NAME":"STARLINK-2571","OBJECT_ID":"2021-038BA","EPOCH":"2026-03-09T22:34:34.275072","MEAN_MOTION":15.29348637,"ECCENTRICITY":0.00013661,"INCLINATION":53.16,"RA_OF_ASC_NODE":331.6456,"ARG_OF_PERICENTER":95.8389,"MEAN_ANOMALY":264.2767,"EPHEMERIS_TYPE":0,"CLASSIFICATION_TYPE":"U","NORAD_CAT_ID":48401,"ELEMENT_SET_NO":999,"REV_AT_EPOCH":26747,"BSTAR":-0.00019056542,"MEAN_MOTION_DOT":-5.849e-5,"MEAN_MOTION_DDOT":0},{"OBJECT_NAME":"OBJECT BC","OBJECT_ID":"2025-313BC","EPOCH":"2026-03-09T04:33:08.504064","MEAN_MOTION":15.29126358,"ECCENTRICITY":0.00084789,"INCLINATION":97.3985,"RA_OF_ASC_NODE":144.811,"ARG_OF_PERICENTER":328.9209,"MEAN_ANOMALY":31.1528,"EPHEMERIS_TYPE":0,"CLASSIFICATION_TYPE":"U","NORAD_CAT_ID":67298,"ELEMENT_SET_NO":999,"REV_AT_EPOCH":789,"BSTAR":0.0026410397,"MEAN_MOTION_DOT":0.00075331,"MEAN_MOTION_DDOT":0}]
